BEIDOU-2 IGSO-6-C13
1 41434U 16021A   23123.86109166 -.00000167  00000+0  00000+0 0  9997
2 41434  58.5719  49.5293 0046964 226.0935 350.6724  1.00263507 26044
